<?xml version="1.0" encoding="UTF-8"?>
<kml xmlns="http://www.opengis.net/kml/2.2">
  <Document>
    <name>Voo - L2 Systems</name>
    <description>Simulação L2 Apex</description>
    <Style id="linhaVoo">
      <LineStyle>
        <color>ff0000ff</color>
        <width>4</width>
      </LineStyle>
      <PolyStyle>
        <color>7f0000ff</color>
      </PolyStyle>
    </Style>
    <Placemark>
      <name>Trajetória do Foguete</name>
      <styleUrl>#linhaVoo</styleUrl>
      <LineString>
        <extrude>1</extrude>
        <tessellate>1</tessellate>
        <altitudeMode>relativeToGround</altitudeMode>
        <coordinates>
-46.6333,-23.5505,0
-46.6333,-23.5505,0.0012472790915467155
-46.6333,-23.5505,0.00668544445377333
-46.6333,-23.5505,0.01876828034482532
-46.6333,-23.5505,0.03878758697065461
-46.6333,-23.5505,0.06759679753534864
-46.6333,-23.5505,0.10569652118244564
-46.6333,-23.5505,0.15339867003066687
-46.6333,-23.5505,0.21088819299110587
-46.6333,-23.5505,0.27817966727147936
-46.6333,-23.5505,0.35518214210434307
-46.6333,-23.5505,0.4418232466611194
-46.6333,-23.5505,0.5380599072943419
-46.6333,-23.5505,0.6427288725016737
-46.6333,-23.5505,0.7466172363051803
-46.6333,-23.5505,0.8499558846451288
-46.6333,-23.5505,0.9528884255190069
-46.6333,-23.5505,1.0555040303733914
-46.633300000410586,-23.5505,1.2192336670402193
-46.63330000262112,-23.5505,1.4868781073802957
-46.633300009682294,-23.550500000000003,1.9379072681827383
-46.633300028706195,-23.55050000000003,2.7257604814398735
-46.63330006779214,-23.550500000000216,3.97685294918616
-46.633300115701815,-23.550500000000607,5.458590947556157
-46.633300158823275,-23.550500000001353,7.166205824517245
-46.6333001767962,-23.55050000000261,9.093519755589838
-46.63330014238787,-23.55050000000437,11.233850152140231
-46.63330002492442,-23.550500000005922,13.58033459052761
-46.63329979362059,-23.55050000000645,16.12571486445389
-46.63329942103311,-23.550500000004337,18.86227480029559
-46.633298886667625,-23.55049999999864,21.78197317936301
-46.633298200161185,-23.550499999988475,24.821948953062613
-46.63329734752578,-23.550499999973987,28.080442416093643
-46.63329635848899,-23.550499999954248,31.49750487166464
-46.63329525769805,-23.550499999928547,35.064882307113194
-46.63329407199782,-23.550499999896445,38.77426460630797
-46.63329282053921,-23.55049999986022,42.616560226412155
-46.63329151342453,-23.55049999982251,46.58166367886288
-46.633290155034196,-23.550499999788784,50.65918677717815
-46.63328874133483,-23.550499999768885,54.83873040488809
-46.633287264640465,-23.550499999770537,59.10981092147102
-46.63328571746538,-23.55049999979244,63.46184744755447
-46.63328409332289,-23.55049999982366,67.88428591202562
-46.633282392785574,-23.55049999984707,72.36669758653056
-46.63328063017406,-23.550499999855674,76.8989370120594
-46.63327882671961,-23.550499999854082,81.47112477909248
-46.63327700403548,-23.55049999985848,86.07349907529088
-46.633275177582966,-23.550499999886025,90.69636435595727
-46.63327334796301,-23.550499999940012,95.33055167409559
-46.63327150923883,-23.55050000001273,99.9676316838538
-46.63326965686201,-23.550500000090132,104.59945866401722
-46.63326778773364,-23.55050000016023,109.21802611184847
-46.633265901570375,-23.550500000215912,113.81671712218882
-46.63326400558446,-23.550500000260538,118.39077350590289
-46.633262112098684,-23.55050000030111,122.93602475632896
-46.63326023195579,-23.550500000338594,127.44836657371751
-46.63325836635362,-23.55050000037474,131.92454752257674
-46.633256510905575,-23.550500000413884,136.3624864473593
-46.63325466242063,-23.550500000459518,140.76046617554206
-46.633252820213976,-23.550500000511033,145.11681716481633
-46.633250987728346,-23.550500000565354,149.43034716466042
-46.63324917252797,-23.55050000061866,153.70048558734658
-46.633247378516444,-23.55050000066561,157.92681055214857
-46.63324560237698,-23.550500000698197,162.10886661573522
-46.633243838022764,-23.55050000071243,166.24644000649815
-46.63324287008746,-23.550500000712955,168.50707863246225
-46.633241423791766,-23.550500000708535,171.87292857453136
-46.63323968319692,-23.550500000703924,175.90573672765785
-46.633237951125146,-23.55050000071086,179.89513976330468
-46.633236230497324,-23.550500000734647,183.8415726481584
-46.63323452253119,-23.55050000077276,187.7454507515584
-46.63323282770768,-23.550500000816168,191.6071758430477
-46.63323114759895,-23.550500000856562,195.42714816924516
-46.63322948162493,-23.550500000886437,199.20574519772245
-46.63322783160305,-23.55050000090384,202.94335137755525
-46.63322619851442,-23.550500000912923,206.64033710447623
-46.63322457822695,-23.550500000921524,210.2970303011967
-46.63322296567922,-23.550500000935426,213.91374361712
-46.63322135753634,-23.55050000095782,217.4907945226207
-46.633219750329744,-23.55050000098807,221.02849455076353
-46.63321814668678,-23.55050000102176,224.52719770808156
-46.63321655694402,-23.550500001054132,227.98730485473976
-46.63321498748551,-23.55050000108164,231.40917708498594
-46.63321343962066,-23.550500001102467,234.79313321458872
-46.633211912291685,-23.550500001115882,238.1394699679646
-46.633210398572885,-23.550500001122092,241.44843710340808
-46.63320889302795,-23.55050000112401,244.72028471834804
-46.633207391704225,-23.550500001125616,247.95526392861115
-46.63320589031338,-23.55050000113087,251.15361760395126
-46.63320438778886,-23.55050000114237,254.3156124588511
-46.63320288373139,-23.550500001160213,257.4415195816735
-46.63320138181038,-23.550500001182638,260.53164130861137
-46.63319989195272,-23.550500001207304,263.58631917194805
-46.63319842127309,-23.550500001232205,266.60586026821437
-46.63319697257979,-23.55050000125568,269.59053290708215
-46.63319554616717,-23.550500001277516,272.5405840027569
-46.63319414000169,-23.550500001298186,275.4562406377999
-46.63319274866454,-23.550500001318095,278.3376990195026
-46.63319136306774,-23.55050000133775,281.18511442181614
-46.63318997518344,-23.55050000135811,283.99863587543393
-46.633188581583305,-23.550500001379646,286.7784475144451
-46.633187182117055,-23.550500001402316,289.52476535347085
-46.63318577850665,-23.550500001425224,292.2378251162349
-46.63318437692773,-23.550500001447066,294.9179026364137
-46.63318298412626,-23.55050000146631,297.565270217114
-46.63318160591721,-23.550500001482078,300.1801799857169
-46.63318024400109,-23.55050000149425,302.76284515672955
-46.6331788993194,-23.55050000150372,305.31346790901904
-46.63317757128537,-23.550500001512074,307.8322353719682
-46.6331762558404,-23.550500001520945,310.31930458256113
-46.63317494918777,-23.550500001531756,312.7748279556646
-46.63317364839903,-23.55050000154605,315.1989586808191
-46.63317235132331,-23.5505000015647,317.59185159809107
-46.63317105627993,-23.55050000158814,319.9536619085155
-46.63316976195737,-23.550500001616157,322.284545449579
-46.633168470811995,-23.5505000016478,324.58469403728566
-46.63316718369253,-23.550500001681872,326.85428096340917
-46.63316590086523,-23.550500001717154,329.0934710739118
-46.63316462453954,-23.550500001752333,331.3024455856041
-46.63316335643116,-23.55050000178653,333.48137729171003
-46.63316209802765,-23.55050000181941,335.63043329155073
-46.63316084932236,-23.550500001851187,337.74976318044327
-46.63315960853448,-23.550500001882313,339.83949606884215
-46.63315837385971,-23.550500001913242,341.89975709419446
-46.633157142758755,-23.55050000194439,343.9306595090638
-46.63315591353192,-23.550500001976197,345.9323224186146
-46.63315468539945,-23.550500002009016,347.9048724995949
-46.633153459477576,-23.55050000204324,349.84845630298724
-46.63315223908317,-23.550500002079215,351.7632424736498
-46.633151025246825,-23.55050000211702,353.64937126334775
-46.63314981878246,-23.55050000215662,355.5069776479564
-46.63314861914559,-23.55050000219794,357.33617926098
-46.63314742484262,-23.550500002240806,359.1370808207547
-46.63314623703507,-23.550500002284902,360.90981371350694
-46.633145056802896,-23.550500002329894,362.65450596956424
-46.633143884056494,-23.550500002375365,364.3712702532613
-46.63314271839926,-23.55050000242079,366.06021325256916
-46.63314155774508,-23.5505000024657,367.7214188623038
-46.63314040066956,-23.550500002509672,369.35497593758487
-46.63313924723377,-23.550500002552386,370.96098918864874
-46.633138095504265,-23.55050000259366,372.5395344930757
-46.633136944196025,-23.550500002633367,374.09069423086044
-46.63313579267195,-23.55050000267144,375.61455732724494
-46.633134641557746,-23.550500002707917,377.111229518746
-46.63313349269315,-23.550500002742975,378.58083215801855
-46.63313234764413,-23.5505000027768,380.02348007609476
-46.633131208949735,-23.55050000280959,381.439297957578
-46.63313007819697,-23.550500002841524,382.8283952748817
-46.63312895536665,-23.55050000287282,384.1908588064019
-46.63312784096697,-23.55050000290368,385.52678008250444
-46.63312673603514,-23.550500002934292,386.83625554505636
-46.633125639311984,-23.550500002964856,388.11934995317586
-46.63312454956755,-23.550500002995495,389.3761262425108
-46.63312346628402,-23.550500003026333,390.6066541902429
-46.633122388370815,-23.55050000305746,391.81099283695795
-46.633121314595336,-23.550500003088956,392.9891959159403
-46.63312024412686,-23.55050000312087,394.14132079403237
-46.63311917619077,-23.550500003153264,395.2674229879817
-46.63311810962128,-23.550500003186173,396.3675482474229
-46.63311704262196,-23.550500003219607,397.44172644600616
-46.633115975001246,-23.550500003253553,398.49001742445256
-46.63311490812734,-23.550500003287958,399.5125117646683
-46.63311384189057,-23.55050000332276,400.50926836426675
-46.63311277579651,-23.550500003357893,401.48033677259076
-46.633111710412464,-23.550500003393264,402.42578775137395
-46.63311064641114,-23.550500003428784,403.3456930223879
-46.63310958370797,-23.55050000346438,404.2401066410027
-46.63310852215238,-23.550500003499955,405.10907978736526
-46.63310746206958,-23.550500003535443,405.9526725491726
-46.63310640340859,-23.550500003570765,406.77093525665
-46.63310534673729,-23.550500003605862,407.56393027847275
-46.63310429302434,-23.550500003640682,408.33172698976085
-46.63310324243916,-23.55050000367519,409.07437600761875
-46.633102194948044,-23.55050000370935,409.79192212429297
-46.63310115081279,-23.550500003743142,410.4844148961473
-46.63310011035938,-23.550500003776545,411.1519037585339
-46.63309907380122,-23.550500003809557,411.7944343001474
-46.63309804100804,-23.550500003842178,412.4120432942475
-46.63309701137456,-23.55050000387442,413.00475553483903
-46.63309598458303,-23.550500003906297,413.57259961307966
-46.6330949608687,-23.55050000393782,414.1156136881292
-46.63309394182416,-23.55050000396897,414.63386523344474
-46.63309292907882,-23.55050000399974,415.1274215740713
-46.633091923167335,-23.550500004030138,415.5963250625046
-46.6330909248815,-23.550500004060165,416.0406237511655
-46.633089935019825,-23.55050000408983,416.4603659382957
-46.63308895392988,-23.550500004119144,416.8555894352882
-46.63308798210431,-23.550500004148113,417.22633607539854
-46.633087020844094,-23.550500004176747,417.5726706258068
-46.63308607013634,-23.550500004205055,417.8946226297563
-46.63308512976707,-23.55050000423306,418.1922168436331
-46.6330842003885,-23.550500004260762,418.46550480553697
-46.633083282583165,-23.55050000428817,418.71453917567794
-46.63308237755641,-23.550500004315285,418.93939873665056
-46.633081485834595,-23.550500004342116,419.14013930526437
-46.63308060711437,-23.55050000436868,419.3167857329715
-46.63307974148078,-23.550500004394987,419.46937819287234
-46.63307888901692,-23.550500004421043,419.5979563263448
-46.63307805018746,-23.550500004446853,419.7025764652055
-46.633077225630075,-23.55050000447241,419.7833021967063
-46.633076411970364,-23.55050000449779,419.8400003598262
-46.633075601848404,-23.550500004523105,419.8723338649252
-46.63307479501146,-23.550500004548372,419.8803049920271
-46.63307399136084,-23.550500004573585,419.8639205755256
-46.633073191179385,-23.550500004598746,419.8232040053037
-46.63307239481495,-23.550500004623853,419.7581806283565
-46.63307160274839,-23.550500004648896,419.66888238182776
-46.633070815656495,-23.550500004673868,419.55535244498145
-46.63307003437561,-23.550500004698765,419.4176446113127
-46.633069259595004,-23.55050000472357,419.2558065686473
-46.63306849230481,-23.550500004748276,419.0699066514513
-46.63306773403609,-23.55050000477286,418.8600488032589
-46.63306698631712,-23.550500004797307,418.62634149574046
-46.633066250805655,-23.550500004821597,418.3689060695234
-46.633065529419376,-23.550500004845706,418.08788503668603
-46.63306482454758,-23.5505000048696,417.7834557242815
-46.63306413880146,-23.55050000489326,417.4558156174366
-46.633063474736886,-23.55050000491664,417.10516554088025
-46.63306283504026,-23.55050000493971,416.73172112443734
-46.633062223652075,-23.550500004962426,416.33578461741166
-46.633061645567544,-23.55050000498474,415.91773348498623
-46.633061105627576,-23.5505000050066,415.4779421184131
-46.63306060819568,-23.55050000502796,415.01675792739724
-46.63306015711235,-23.55050000504876,414.53449556669216
-46.63305975570679,-23.550500005068955,414.031435521616
-46.63305940769551,-23.55050000508849,413.5078822316846
-46.6330593530428,-23.55050000509181,413.41494264658223
-46.63305933762555,-23.55050000509276,413.38805854125354
-46.63305933157585,-23.55050000509314,413.37732796565007
-46.633059325515724,-23.55050000509353,413.3663230926611
-46.6330593195192,-23.550500005093923,413.3551614507418
-46.63305931358994,-23.550500005094325,413.34383628368
-46.63305930773315,-23.550500005094726,413.33234281504207
-46.63305930195435,-23.550500005095138,413.3206760149009
-46.63305929625942,-23.550500005095554,413.3088306265709
-46.633059290654536,-23.550500005095977,413.29680093103144
-46.63305928514281,-23.550500005096403,413.28457298193837
-46.63305927973538,-23.55050000509684,413.27214912398114
-46.63305927443989,-23.55050000509728,413.2595228688576
-46.633059269264564,-23.550500005097728,413.2466875856315
-46.633059264218225,-23.550500005098183,413.23363631061716
-46.633059259310336,-23.550500005098645,413.22036172866126
-46.63305925455102,-23.550500005099117,413.20685614912287
-46.63305924995116,-23.550500005099593,413.1931114798554
-46.633059245522446,-23.550500005100076,413.1791191989015
-46.633059241277444,-23.55050000510057,413.16487032365876
-46.633059237229666,-23.550500005101075,413.1503553772407
-46.63305923339369,-23.550500005101583,413.13556435172205
-46.63305922978521,-23.5505000051021,413.12048666791657
-46.63305922642118,-23.55050000510263,413.1051111312888
-46.633059223319925,-23.55050000510317,413.0894258835469
-46.63305922050124,-23.550500005103718,413.0734183493989
-46.63305921798659,-23.55050000510428,413.057075177885
-46.63305921579925,-23.550500005104848,413.04038217760956
-46.63305921396446,-23.550500005105427,413.02332424509865
-46.633059212509686,-23.55050000510602,413.0058852853919
-46.63305921146482,-23.550500005106624,412.98804812384
-46.63305921086245,-23.550500005107242,412.9697944079164
-46.633059210738146,-23.550500005107875,412.9511044976616
-46.63305921113082,-23.550500005108518,412.9319573431474
-46.6330592120831,-23.550500005109175,412.91233034708074
-46.63305921364172,-23.55050000510985,412.8921992103378
-46.63305921585811,-23.55050000511054,412.87153775783025
-46.633059218788866,-23.550500005111246,412.85031774163195
-46.63305922249878,-23.550500005111967,412.82849641581157
-46.63305922706325,-23.55050000511271,412.80601865335984
-46.633059232554395,-23.550500005113474,412.78288189541183
-46.63305923905845,-23.550500005114255,412.75904570210184
-46.63305924667123,-23.550500005115058,412.73446727675173
-46.633059255499816,-23.550500005115882,412.709099762936
-46.63305926566417,-23.55050000511673,412.68289177582056
-46.63305927729909,-23.550500005117602,412.6557868019473
-46.6330592905565,-23.5505000051185,412.6277224991939
-46.63305930560823,-23.550500005119428,412.5986298737978
-46.633059322649274,-23.550500005120387,412.5684323078427
-46.6330593419018,-23.550500005121375,412.53704440356694
-46.63305936361989,-23.550500005122398,412.50437060172396
-46.63305938809547,-23.550500005123457,412.470303519174
-46.63305941572835,-23.550500005124555,412.4346445136623
-46.63305944692294,-23.5505000051257,412.3972595009238
-46.63305948209215,-23.550500005126885,412.3580581873811
-46.63305952178433,-23.55050000512812,412.3168552554725
-46.63305956664404,-23.550500005129408,412.2734413738385
-46.633059617439116,-23.550500005130754,412.22757282798256
-46.633059675091125,-23.55050000513216,412.17896403789825
-46.633059740715616,-23.550500005133635,412.12727749971066
-46.633059819877076,-23.55050000513527,412.06917539313724
-46.63305991164192,-23.550500005136993,412.0066360570085
-46.63306001862898,-23.55050000513882,411.93908712732764
-46.6330601444675,-23.55050000514075,411.8656730049494
-46.63306028995065,-23.550500005142762,411.78735739175136
-46.63306045254373,-23.55050000514478,411.70639856620727
-46.63306064819306,-23.550500005146954,411.6161246129757
-46.63306088098877,-23.550500005149257,411.5165954286866
-46.63306114592511,-23.55050000515159,411.4112375719023
-46.63306147312044,-23.550500005154145,411.28974256545376
-46.633061939932404,-23.5505000051573,411.1288196381724
-46.6330625569838,-23.5505000051608,410.9331227363557
-46.633063420433615,-23.550500005164736,410.68312523196187
-46.633064405604344,-23.55050000516828,410.4202488264613
-46.633066364444026,-23.55050000517337,409.93901709328213
-46.63307002841951,-23.550500005178613,409.13472219668176
-46.633075908375986,-23.55050000518174,407.95864054354877
-46.63308659135938,-23.550500005182514,406.00179985140267
-46.633092763148895,-23.550500005182318,404.8423270246862
-46.63309795676972,-23.550500005182272,403.7641412701901
-46.633106876687314,-23.550500005182254,401.8073993510889
-46.63311545484308,-23.550500005182258,400.01453936293433
-46.63312375971588,-23.550500005182258,398.36597643420544
-46.633130661398575,-23.550500005182258,397.05345154990334
-46.63313899810213,-23.550500005182258,395.57819753546585
-46.63314955139947,-23.550500005182258,393.62320907889995
-46.63315921072045,-23.550500005182258,391.6640683352381
-46.633168385317745,-23.550500005182258,389.9035313247508
-46.63317947163956,-23.550500005182258,387.9407370502747
-46.63319058313618,-23.550500005182258,385.99352740856307
-46.63320130814598,-23.550500005182258,384.0246843782934
-46.63320786768621,-23.550500005182258,382.6940050340291
-46.63321105307711,-23.550500005182258,382.0306913791351
-46.633217544887415,-23.550500005182258,380.73410217236824
-46.6332243880714,-23.550500005182258,379.35617820520736
-46.63323385327133,-23.550500005182258,377.414429272788
-46.633243466236024,-23.550500005182258,375.46109845278664
-46.63325300845361,-23.550500005182258,373.5022910469534
-46.633261659848266,-23.550500005182258,371.5563030548054
-46.63326549766382,-23.550500005182258,370.6711007288582
-46.633270468256505,-23.550500005182258,369.6407208388922
-46.63328032291633,-23.550500005182258,367.6858424232643
-46.63329101947852,-23.550500005182258,365.7331922724926
-46.63330203129057,-23.550500005182258,363.7782635724891
-46.63331212842613,-23.550500005182258,361.8262127623412
-46.63332027754513,-23.550500005182258,360.297472517268
-46.63333209080052,-23.550500005182258,358.34541478212935
-46.63334358739947,-23.550500005182258,356.43872764360935
-46.633354169808854,-23.550500005182258,354.48763474403995
-46.63336002084628,-23.550500005182258,353.4488082987061
-46.63336339725637,-23.550500005182258,352.88775626014586
-46.63337417135825,-23.550500005182258,350.9361380276121
-46.63338272538421,-23.550500005182258,349.3579825813236
-46.63339373770026,-23.550500005182258,347.40414082844444
-46.633405038224495,-23.550500005182258,345.4534956355217
-46.633412292080166,-23.550500005182258,344.148558977531
-46.63341822992823,-23.550500005182258,342.97582107761053
-46.63342829809091,-23.550500005182258,341.0241245226488
-46.6334376788187,-23.550500005182258,339.07429736527683
-46.633444632690264,-23.550500005182258,337.5745481703668
-46.633452472051246,-23.550500005182258,335.92048784846213
-46.633461853620936,-23.550500005182258,333.970018787391
-46.633471347814606,-23.550500005182258,332.01805328978844
-46.633481093152,-23.550500005182258,330.1208129810238
-46.633487279991925,-23.550500005182258,328.94337305227907
-46.633496505491216,-23.550500005182258,326.994339566063
-46.63350517804109,-23.550500005182258,325.04306183725254
-46.63351135367575,-23.550500005182258,323.78353809245704
-46.633516022104914,-23.550500005182258,322.92498241721336
-46.63352635210477,-23.550500005182258,320.9750835529401
-46.63353661188731,-23.550500005182258,319.02407406991057
-46.63354650759284,-23.550500005182258,317.0760580539872
-46.63355596911481,-23.550500005182258,315.12394139748574
-46.63356533268299,-23.550500005182258,313.1776438998153
-46.63357509724612,-23.550500005182258,311.2243993316942
-46.633585097085344,-23.550500005182258,309.28264876172096
-46.633593348880936,-23.550500005182258,307.37088406100486
-46.633596142687246,-23.550500005182258,306.66791031639525
-46.63360005508671,-23.550500005182258,305.8232998188915
-46.63360984581927,-23.550500005182258,303.93841381024447
-46.633620590930114,-23.550500005182258,301.9905637777584
-46.6336312245077,-23.550500005182258,300.0408288531246
-46.63364185058404,-23.550500005182258,298.0944938527771
-46.63365219330625,-23.550500005182258,296.1441375830079
-46.633661747209274,-23.550500005182258,294.41804781298134
-46.63367120095385,-23.550500005182258,292.795289326448
-46.63368218053769,-23.550500005182258,290.8551211930017
-46.63369283562297,-23.550500005182258,288.8973434931642
-46.63370222207941,-23.550500005182258,287.2056422673122
-46.63370859036802,-23.550500005182258,286.08152348819306
-46.633713949782425,-23.550500005182258,285.1163864283518
-46.63372067587251,-23.550500005182258,283.88704520739117
-46.63373082222502,-23.550500005182258,281.9412041952644
-46.633741340655206,-23.550500005182258,279.9942640484894
-46.63375206584813,-23.550500005182258,278.04976369455375
-46.63376164614014,-23.550500005182258,276.1040085576495
-46.633770315320554,-23.550500005182258,274.1602779294243
-46.633779060461,-23.550500005182258,272.21098537005133
-46.63378863630777,-23.550500005182258,270.2726743478682
-46.6337990271086,-23.550500005182258,268.31845265171535
-46.633809571202356,-23.550500005182258,266.38767441233443
-46.63381638048298,-23.550500005182258,265.07975209711253
-46.63382108899139,-23.550500005182258,264.0812347383095
-46.633826420496156,-23.550500005182258,262.93687043492605
-46.63383623033743,-23.550500005182258,260.996217114271
-46.633847662738376,-23.550500005182258,259.0509535539254
-46.633856619048046,-23.550500005182258,257.5810169229163
-46.633867368396615,-23.550500005182258,255.6334388075337
-46.633877879279495,-23.550500005182258,253.6965728854509
-46.63388856978843,-23.550500005182258,251.74286246821114
-46.63389842812865,-23.550500005182258,249.86274339989444
-46.633904627408164,-23.550500005182258,248.61483973801757
-46.63390839655201,-23.550500005182258,247.85162008668516
-46.633913291317874,-23.550500005182258,246.90938390454156
-46.63392305113288,-23.550500005182258,244.96675636023906
-46.633932001096305,-23.550500005182258,243.02388329299683
-46.63394124112647,-23.550500005182258,241.0833075995071
-46.63394700839387,-23.550500005182258,239.86454886618546
-46.63395037638879,-23.550500005182258,239.11191384904762
-46.63396036255323,-23.550500005182258,237.17315445476373
-46.63397151410211,-23.550500005182258,235.2293018558856
-46.63398274634828,-23.550500005182258,233.28934271981984
-46.63399320552441,-23.550500005182258,231.34599300377477
-46.6340029018116,-23.550500005182258,229.51586894698303
-46.63401381275539,-23.550500005182258,227.5680344322446
-46.63401999404431,-23.550500005182258,226.36979731263764
-46.63402319518718,-23.550500005182258,225.6926664843024
-46.6340297955707,-23.550500005182258,224.27242542380668
-46.63403688831651,-23.550500005182258,222.84039528546046
-46.63404747722529,-23.550500005182258,220.89721637990343
-46.634057812181645,-23.550500005182258,218.96088854607078
-46.63406705372878,-23.550500005182258,217.01590969378563
-46.634074121779925,-23.550500005182258,215.54569004103953
-46.6340799540122,-23.550500005182258,214.3879060336868
-46.63408927623035,-23.550500005182258,212.45192319061067
-46.6340992618775,-23.550500005182258,210.50837509084286
-46.634105048094845,-23.550500005182258,209.39492823730203
-46.63411183847718,-23.550500005182258,207.92870411864058
-46.63412013379414,-23.550500005182258,205.9937218985696
-46.63412903008638,-23.550500005182258,204.0504999111889
-46.63413454397307,-23.550500005182258,202.87236352823322
-46.63413934758503,-23.550500005182258,201.77869541727523
-46.63414824395495,-23.550500005182258,199.84285314828168
-46.63415704849379,-23.550500005182258,197.90058758266525
-46.63416349455041,-23.550500005182258,196.53538289651183
-46.634169430245564,-23.550500005182258,195.3778545595134
-46.634179013466394,-23.550500005182258,193.4431349013816
-46.63418893414034,-23.550500005182258,191.5009160197954
-46.634199278337064,-23.550500005182258,189.57067536918632
-46.63420846022053,-23.550500005182258,187.62581326429992
-46.63421276610963,-23.550500005182258,186.66373835071633
-46.634217697425946,-23.550500005182258,185.6736604179841
-46.634224013258354,-23.550500005182258,184.40850984343015
-46.634233386348,-23.550500005182258,182.47003361079936
-46.63424342088222,-23.550500005182258,180.53641378555255
-46.63425386560915,-23.550500005182258,178.59629503908064
-46.63426365646944,-23.550500005182258,176.66485340664045
-46.63427274128146,-23.550500005182258,174.95506195525107
-46.63428499508447,-23.550500005182258,173.03184798197148
-46.63429021578147,-23.550500005182258,172.24932364397847
-46.63429951076769,-23.550500005182258,170.5609440490516
-46.63430564368651,-23.550500005182258,169.27394927835664
-46.63431511878406,-23.550500005182258,167.339567597523
-46.63432483063805,-23.550500005182258,165.40118405133092
-46.63433418772549,-23.550500005182258,163.46967855647029
-46.63434356823955,-23.550500005182258,161.52880334420465
-46.63435354846292,-23.550500005182258,159.60276828828847
-46.63436414190255,-23.550500005182258,157.6551991225521
-46.63437005866954,-23.550500005182258,156.54366817959448
-46.63437387979036,-23.550500005182258,155.7970473964564
-46.63438091871562,-23.550500005182258,154.35380153988984
-46.634389993017706,-23.550500005182258,152.41888482981207
-46.63439905091876,-23.550500005182258,150.48450091548472
-46.63440922461478,-23.550500005182258,148.5549857047959
-46.63442047701237,-23.550500005182258,146.6184770270961
-46.63443100795064,-23.550500005182258,144.6899277336097
-46.63444112520289,-23.550500005182258,142.75008597188406
-46.63445086368351,-23.550500005182258,140.82817206602473
-46.63445755140331,-23.550500005182258,139.47825206583417
-46.63446205360223,-23.550500005182258,138.5691470911849
-46.63446766798425,-23.550500005182258,137.40351570811183
-46.634472807560826,-23.550500005182258,136.23981007037307
-46.63447631830234,-23.550500005182258,135.38942228122193
-46.63448439728949,-23.550500005182258,133.45655522136207
-46.63449129966703,-23.550500005182258,132.0108404252077
-46.634494614032036,-23.550500005182258,131.3718192680408
-46.63450111713894,-23.550500005182258,129.99629228303343
-46.63450652763907,-23.550500005182258,128.8585302396731
-46.63451679834136,-23.550500005182258,126.92622081890647
-46.634527138524966,-23.550500005182258,124.99633958238948
-46.634536324631796,-23.550500005182258,123.06348421649137
-46.634545068171334,-23.550500005182258,121.13472767230955
-46.634554801626564,-23.550500005182258,119.201141569594
-46.63456524389213,-23.550500005182258,117.27540774515244
-46.634574889217006,-23.550500005182258,115.33780019702951
-46.63458280919607,-23.550500005182258,113.68568209242233
-46.634591116166085,-23.550500005182258,112.05109417900131
-46.634596711114284,-23.550500005182258,110.93040206649675
-46.63460146361895,-23.550500005182258,109.95091289680448
-46.63461101139805,-23.550500005182258,108.05608251926303
-46.634621707947275,-23.550500005182258,106.12309889407531
-46.63463004232704,-23.550500005182258,104.60485737990983
-46.63463828431117,-23.550500005182258,103.00752346009233
-46.63464894437355,-23.550500005182258,101.08657488592392
-46.63465638213586,-23.550500005182258,99.74195002186137
-46.63466338891923,-23.550500005182258,98.37916483558466
-46.63466843177285,-23.550500005182258,97.30810418655152
-46.634671027518344,-23.550500005182258,96.71125040827836
-46.63467944206183,-23.550500005182258,94.87914123871342
-46.63468838219796,-23.550500005182258,92.95034130453736
-46.63469728384419,-23.550500005182258,91.02057186203905
-46.634706840559524,-23.550500005182258,89.09367846783609
-46.634717014785124,-23.550500005182258,87.16277168884497
-46.63472657730429,-23.550500005182258,85.2396472438661
-46.63473220979164,-23.550500005182258,84.11662952975513
-46.63474397523576,-23.550500005182258,82.19663256854886
-46.63475061953629,-23.550500005182258,81.18694418300917
-46.63476232994902,-23.550500005182258,79.26021773755215
-46.6347729246257,-23.550500005182258,77.3329566515836
-46.63478219684706,-23.550500005182258,75.40788937015671
-46.63479130698038,-23.550500005182258,73.478828781497
-46.634800862209644,-23.550500005182258,71.55473149992163
-46.634809486193454,-23.550500005182258,69.62606905741848
-46.634814201626156,-23.550500005182258,68.54277305141636
-46.634823656858046,-23.550500005182258,66.67697057143724
-46.63483096027645,-23.550500005182258,65.25007286658703
-46.63483634052516,-23.550500005182258,64.18044851357762
-46.634844699013456,-23.550500005182258,62.57592411235691
-46.634855618962796,-23.550500005182258,60.6511309748213
-46.63486139698004,-23.550500005182258,59.648518953959815
-46.6348705316372,-23.550500005182258,57.72574809410326
-46.634875165048754,-23.550500005182258,56.67677970594172
-46.63488500379801,-23.550500005182258,54.751717319025886
-46.634890537740795,-23.550500005182258,53.66862134420131
-46.63489410716576,-23.550500005182258,52.9217818828499
-46.634903432837504,-23.550500005182258,50.99607542859496
-46.634912646455795,-23.550500005182258,49.07099880208846
-46.63492171788335,-23.550500005182258,47.145391068975705
-46.63493020865846,-23.550500005182258,45.22231627385799
-46.63493806488393,-23.550500005182258,43.4734847534024
-46.634947477196484,-23.550500005182258,41.54973138329927
-46.63495750596364,-23.550500005182258,39.625079324308686
-46.63496750733865,-23.550500005182258,37.703685826010805
-46.63497717444828,-23.550500005182258,35.77666985024496
-46.634986932683404,-23.550500005182258,33.85755830730121
-46.63499681417693,-23.550500005182258,31.926918607259626
-46.635006401242734,-23.550500005182258,30.016269593886076
-46.63501322796292,-23.550500005182258,28.613433241155487
-46.63501908187432,-23.550500005182258,27.488072253069635
-46.63502391116582,-23.550500005182258,26.593714396234112
-46.63503391196972,-23.550500005182258,24.67197988956881
-46.635044381098986,-23.550500005182258,22.748457225904726
-46.63505491621471,-23.550500005182258,20.829344181501202
-46.6350646855769,-23.550500005182258,19.069233120733294
-46.63507171127206,-23.550500005182258,17.814583893195948
-46.635079469983076,-23.550500005182258,16.353393265267467
-46.635090071701306,-23.550500005182258,14.43585272466161
-46.6351012975243,-23.550500005182258,12.507537424207834
-46.63511241131696,-23.550500005182258,10.596750092733668
-46.635122925634654,-23.550500005182258,8.660112213794301
-46.63512964259089,-23.550500005182258,7.391711281127386
-46.63513379801171,-23.550500005182258,6.641051646219681
-46.63514095884393,-23.550500005182258,5.403287156738487
-46.635146057312255,-23.550500005182258,4.5140972985867505
-46.635155578193675,-23.550500005182258,2.689802066854416
-46.63516559716427,-23.550500005182258,0.7708548992837665
-46.63516974039581,-23.550500005182258,0.0
        </coordinates>
      </LineString>
    </Placemark>
  </Document>
</kml>
